QIANFAN-81              
1 63167U 25046J   25209.61824569  .00000129  00000+0  18170-3 0  9990
2 63167  88.9857 333.9979 0015961 151.7538 208.4482 13.50958890 28977
QIANFAN-82              
1 63168U 25046K   25209.79915152  .00000135  00000+0  18974-3 0  9998
2 63168  88.9857 334.0228 0013918 157.8471 202.3284 13.50960505 28980
QIANFAN-83              
1 63169U 25046L   25209.60763672  .00000188  00000+0  22741-3 0  9992
2 63169  88.9857 334.0872 0015362 151.9786 208.2201 13.61929297 28939
QIANFAN-84              
1 63170U 25046M   25209.60583443  .00000179  00000+0  25887-3 0  9994
2 63170  88.9857 334.1758 0016949 156.1327 204.0613 13.50962386 28884
QIANFAN-85              
1 63171U 25046N   25209.60175630  .00000140  00000+0  19738-3 0  9996
2 63171  88.9857 334.0485 0014273 157.5004 202.6775 13.50956733 28956
QIANFAN-86              
1 63172U 25046P   25209.60998656  .00000141  00000+0  19995-3 0  9994
2 63172  88.9859 333.9066 0012055 160.2620 199.9000 13.50957030 29033
QIANFAN-87              
1 63173U 25046Q   25210.17359153  .00000128  00000+0  17954-3 0  9990
2 63173  88.9855 333.9656 0012948 154.5927 205.5864 13.50954995 29042
QIANFAN-88              
1 63174U 25046R   25209.59772870  .00000139  00000+0  19683-3 0  9993
2 63174  88.9858 333.9759 0013049 163.6783 196.4791 13.50957200 28996
